#dP2024 11 28  0  0  0.00000000      96 __u+U IGS20 FIT  IAC
## 2342 345600.00000000   900.00000000 60642 0.0000000000000
+   52   G02G03G04G05G06G07G08G09G10G11G12G13G14G15G16G17G18
+        G19G20G21G22G23G24G25G26G27G28G29G30G31G32R01R02R03
+        R04R05R07R08R09R11R12R14R15R16R17R18R19R20R21R22R24
+        R26  0  0  0  0  0  0  0  0  0  0  0  0  0  0  0  0
+          0  0  0  0  0  0  0  0  0  0  0  0  0  0  0  0  0
++         6  6  5  5  6  5  7  5  7  6  5  6  6  5  6  4  7
++         5  6  6  5  8  5  5  5  6  7  5  5  7  6  7  7  6
++         7  6  6  6  5  5  7  6  7  6  6  6  5  7  5  6  6
++         6  0  0  0  0  0  0  0  0  0  0  0  0  0  0  0  0
++         0  0  0  0  0  0  0  0  0  0  0  0  0  0  0  0  0
%c M  cc GPS ccc cccc cccc cccc cccc ccccc ccccc ccccc ccccc
%c cc cc ccc ccc cccc cccc cccc cccc ccccc ccccc ccccc ccccc
%f  0.0000000  0.000000000  0.00000000000  0.000000000000000
%f  0.0000000  0.000000000  0.00000000000  0.000000000000000
%i    0    0    0    0      0      0      0      0         0
%i    0    0    0    0      0      0      0      0         0
/* INFORMATION & ANALYSIS CENTER (IAC)      ULTRA-RAPID DATA
/* S/V CLOCKS ARE ALIGNED TO GNSS TIME                      
/* G:C1WC2W R:C1PC2P E:C1XC5X C:C2IC6I J:C1CC2S             
/* PCV:IGS20_2317 OL/AL:FES2004  NONE     YN ORB:CoN CLK:CoN
*  2024 11 28 15 30  0.00000000
PG02 -21473.862440 -11281.185364  11707.746577   -304.260525
PG03 -15212.685023   -471.024823  21587.037525    611.701092
PG04 -26062.334338  -1064.962560   5436.270394    487.120806
PG05   8268.722684  16292.112505 -19432.027291   -194.392429
PG06    939.424650  20155.569676  17283.491665     -3.333859
PG07 -16201.994559   2941.050239 -20392.970908    -17.753722
PG08 -20440.276178  -7642.575815 -15565.622033    425.404364
PG09 -25480.825513   6774.747826  -3580.344088    464.000059
PG10  10100.325304 -24358.266442   -189.711588   -213.341348
PG11  11474.620114  23265.029024   5889.564499   -751.652717
PG12  13949.076345   5736.326159  21577.770794   -555.016534
PG13  12477.126099  13392.773776 -19564.729826    687.887478
PG14 -12932.734398  22691.936821  -4030.523920    549.310914
PG15  21232.849473   5488.657263 -15608.533985    233.206343
PG16  -3180.018342 -20127.460197 -17137.815556   -116.762226
PG17 -15531.224556  13328.598592  17448.999670    540.889551
PG18  14343.131598  -5421.801582 -21680.914611   -660.595163
PG19  -4486.193869  14918.052476  21312.034575    567.986238
PG20   2235.437208  24473.150759 -10173.867426    368.345865
PG21 -21001.244385 -16292.641265   5885.212612     96.333593
PG22  -9048.663998  24780.465616   4679.668232    -82.738169
PG23  15729.674199 -16495.320226 -13398.403079    372.658731
PG24  21418.800938  13298.834673   8509.072539   -477.410260
PG25  17061.237658  -9341.907039  17613.622561    498.634608
PG26   2642.551060 -25410.718601  -6659.668101     10.364386
PG27  -9890.300669 -13438.426763 -21053.952214    -34.545074
PG28    447.235562 -19339.263620  18184.441898   -492.731645
PG29  26127.789500  -3955.992074  -3320.687543   -560.248268
PG30  -7786.122768  14645.635730 -20547.874345   -272.525626
PG31  -8123.055143 -22877.700590  10079.200632   -220.961969
PG32  11415.323278 -14982.411039  18865.729351   -567.202486
PR01  22662.603068 -11078.899536  -3805.606127    105.924228
PR02  15703.343602 -15183.396836  13150.318192    -39.374475
PR03   -847.034467 -11612.701270  22731.444908    112.222007
PR04 -16116.994184  -1770.413012  19726.184186    266.057488
PR05 -23113.011312   8878.771034   6208.521527    141.398914
PR07   1107.039265  11460.603193 -22729.720281     95.883653
PR08  16324.120712   1513.420273 -19468.416251     -6.217864
PR09  -5176.756727  22459.439193 -10822.113429    223.135542
PR11   8815.747898  14483.436210  19057.215312      5.943987
PR12  10759.450804  -6789.530260  22125.622143     47.760116
PR14  -2696.831790 -24611.983372  -6170.387862     27.297735
PR15  -9314.568812 -12876.654256 -19940.518778     73.653964
PR16 -10605.579457   6621.163328 -22223.752784     31.142626
PR17 -12493.812983 -16074.796541 -15322.392323    143.873962
PR18 -21514.176377 -13749.376051     60.325406    174.111250
PR19 -20324.625862  -6291.809207  14072.885326   -300.060661
PR20  -5415.126759   8939.689227  23284.097408   -122.514135
PR21  11543.400650  16047.498002  16147.285821   -155.124713
PR22  21462.645694  13719.876032  -1222.456715    -24.422053
PR24   4732.236889  -9889.619277 -23006.154970    -81.948094
PR26  15043.295362   2614.473932 -20419.803957   -133.218718
*  2024 11 28 15 45  0.00000000
PG02 -22138.822025 -12202.673732   9203.046060   -304.252555
PG03 -14356.709929  -2845.076948  21993.704837    611.709804
PG04 -25327.023171  -1385.159085   8151.862445    487.126451
PG05   7530.358703  18263.254520 -17899.942982   -194.393411
PG06   -432.180367  18616.997178  18965.050144     -3.360585
PG07 -17656.079222   1056.678168 -19412.503269    -17.752189
PG08 -18661.787030  -8181.775755 -17390.590258    425.413040
PG09 -25762.482812   6574.723541   -744.296298    464.015140
PG10  10218.781932 -24084.868360  -3109.540246   -213.354764
PG11  10800.812008  22744.290443   8589.728534   -751.653646
PG12  12911.930035   8038.906560  21493.533988   -555.018665
PG13  10230.549463  13532.784213 -20730.102959    687.889924
PG14 -12991.034195  21993.509189  -6776.376359    549.318003
PG15  19586.921267   6249.924960 -17417.327348    233.210120
PG16  -2242.338872 -21685.589598 -15199.040643   -116.753057
PG17 -17345.926415  13394.618836  15556.823015    540.875872
PG18  15841.551274  -3490.872629 -21045.995952   -660.595130
PG19  -6918.259625  15000.759019  20557.454453    567.989693
PG20   1827.853490  25440.666438  -7584.153863    368.345715
PG21 -21210.494915 -16731.998485   3152.735518     96.332370
PG22  -9394.638466  24980.387975   1874.702838    -82.740443
PG23  15347.931627 -14862.429128 -15588.351998    372.665699
PG24  21838.833228  14117.986559   5895.432765   -477.407946
PG25  16510.156702  -7229.945997  19068.321444    498.634332
PG26   3144.904519 -25891.461190  -3932.491990     10.352177
PG27  -7560.136935 -13903.803762 -21678.590562    -34.544909
PG28   1978.844571 -17804.765004  19593.941080   -492.741761
PG29  26359.468251  -3754.796958   -467.365746   -560.245527
PG30  -9402.243115  12834.442213 -21096.338832   -272.518450
PG31  -7080.951450 -21995.063381  12514.291519   -220.961774
PG32  13440.419285 -15207.715552  17245.592571   -567.197402
PR01  22022.801995 -10852.977745  -6930.614375    105.926087
PR02  16887.909694 -16029.245329  10370.539693    -39.374113
PR03   1502.398254 -13034.411521  21904.755636    112.223064
PR04 -13882.650796  -2944.006153  21227.740754    266.059411
PR05 -22197.245572   8562.278254   9250.131142    141.399434
PR07  -1261.115313  12890.631162 -21948.379723     95.884627
PR08  14114.836618   2712.498359 -21004.009141     -6.217584
PR09  -5166.865210  20951.596675 -13518.771209    223.137340
PR11   8943.105179  16710.035419  17070.014745      5.943899
PR12  10763.564336  -4023.065332  22791.276286     47.760656
PR14  -2824.528978 -25178.170068  -3039.433678     27.297693
PR15  -9411.973033 -15228.717782 -18159.462958     73.653606
PR16 -10616.304047   3836.835196 -22867.143784     31.143292
PR17 -10793.779796 -14944.781411 -17591.459052    143.876566
PR18 -21450.971016 -13474.998527  -3166.324640    174.112660
PR19 -21745.410244  -6985.209381  11358.348633   -300.061404
PR20  -7831.824991   7401.819424  23138.660551   -122.513177
PR21   9780.842893  14851.665515  18308.839285   -155.127719
PR22  21502.455227  13574.602283   1988.502906    -24.432873
PR24   7197.061223  -8477.041588 -22932.584988    -81.949332
PR26  12765.836297   3881.676641 -21724.858439   -133.218423
EOF
